$$SOE
2461302.500000000, A.D. 2026-Sep-19 00:00:00.0000, 2.339611096788462E+08, -4.165203781010444E+08, 8.864374529261887E+06,
2461309.500000000, A.D. 2026-Sep-26 00:00:00.0000, 2.416396181682242E+08, -4.100625537653123E+08, 8.475094290420860E+06,
2461316.500000000, A.D. 2026-Oct-03 00:00:00.0000, 2.492093998071004E+08, -4.034202369484517E+08, 8.082000387425840E+06,
2461323.500000000, A.D. 2026-Oct-10 00:00:00.0000, 2.566657782525273E+08, -3.965943642433918E+08, 7.685228597920060E+06,
2461330.500000000, A.D. 2026-Oct-17 00:00:00.0000, 2.640040271586444E+08, -3.895859851938058E+08, 7.284919610789180E+06,
2461337.500000000, A.D. 2026-Oct-24 00:00:00.0000, 2.712193717907798E+08, -3.823962666113295E+08, 6.881219131675035E+06,
2461344.500000000, A.D. 2026-Oct-31 00:00:00.0000, 2.783069909441506E+08, -3.750264971420155E+08, 6.474277964529723E+06,
2461351.500000000, A.D. 2026-Nov-07 00:00:00.0000, 2.852620195191580E+08, -3.674780920009014E+08, 6.064252043781921E+06,
2461358.500000000, A.D. 2026-Nov-14 00:00:00.0000, 2.920795519679388E+08, -3.597525969802899E+08, 5.651302470978305E+06,
2461365.500000000, A.D. 2026-Nov-21 00:00:00.0000, 2.987546448138447E+08, -3.518516910425984E+08, 5.235595777575880E+06,
2461372.500000000, A.D. 2026-Nov-28 00:00:00.0000, 3.052823172581168E+08, -3.437771904963456E+08, 4.817304259174734E+06,
2461379.500000000, A.D. 2026-Dec-05 00:00:00.0000, 3.116575535060576E+08, -3.355310553995222E+08, 4.396605995014474E+06,
2461386.500000000, A.D. 2026-Dec-12 00:00:00.0000, 3.178753069917110E+08, -3.271153950668446E+08, 3.973684791404098E+06,
2461393.500000000, A.D. 2026-Dec-19 00:00:00.0000, 3.239305046279076E+08, -3.185324726615657E+08, 3.548730222279355E+06,
2461400.500000000, A.D. 2026-Dec-26 00:00:00.0000, 3.298180509528071E+08, -3.097847097255412E+08, 3.121937708474845E+06,
2461407.500000000, A.D. 2027-Jan-02 00:00:00.0000, 3.355328324617329E+08, -3.008746908225200E+08, 2.693508594158649E+06,
2461414.500000000, A.D. 2027-Jan-09 00:00:00.0000, 3.410697222535093E+08, -2.918051682570864E+08, 2.263650210607961E+06,
2461421.500000000, A.D. 2027-Jan-16 00:00:00.0000, 3.464235850378295E+08, -2.825790668415364E+08, 1.832575923955977E+06,
2461428.500000000, A.D. 2027-Jan-23 00:00:00.0000, 3.515892825594425E+08, -2.731994887295631E+08, 1.400505158450082E+06,
2461435.500000000, A.D. 2027-Jan-30 00:00:00.0000, 3.565616796354866E+08, -2.636697183413701E+08, 9.676633729375005E+05,
2461442.500000000, A.D. 2027-Feb-06 00:00:00.0000, 3.613356512392191E+08, -2.539932270148580E+08, 5.342819782378525E+05,
2461449.500000000, A.D. 2027-Feb-13 00:00:00.0000, 3.659060901787456E+08, -2.441736761373587E+08, 1.005983362620175E+05,
2461456.500000000, A.D. 2027-Feb-20 00:00:00.0000, 3.702679130140769E+08, -2.342149195228256E+08, -3.331440080866516E+05,
2461463.500000000, A.D. 2027-Feb-27 00:00:00.0000, 3.744160656120988E+08, -2.241210082188945E+08, -7.666952543560863E+05,
2461470.500000000, A.D. 2027-Mar-06 00:00:00.0000, 3.783455313600482E+08, -2.138961957883816E+08, -1.199799554551780E+06,
2461477.500000000, A.D. 2027-Mar-13 00:00:00.0000, 3.820513404398265E+08, -2.035449419819216E+08, -1.632195188786015E+06,
2461484.500000000, A.D. 2027-Mar-20 00:00:00.0000, 3.855285790345080E+08, -1.930719156017937E+08, -2.063614674480408E+06,
2461491.500000000, A.D. 2027-Mar-27 00:00:00.0000, 3.887723986671810E+08, -1.824819970697140E+08, -2.493784873789757E+06,
2461498.500000000, A.D. 2027-Apr-03 00:00:00.0000, 3.917780258705578E+08, -1.717802807086595E+08, -2.922427122995347E+06,
2461505.500000000, A.D. 2027-Apr-10 00:00:00.0000, 3.945407722414363E+08, -1.609720766768924E+08, -3.349257388767116E+06,
2461512.500000000, A.D. 2027-Apr-17 00:00:00.0000, 3.970560448918430E+08, -1.500629125291359E+08, -3.773986455591902E+06,
2461519.500000000, A.D. 2027-Apr-24 00:00:00.0000, 3.993193573616452E+08, -1.390585344274532E+08, -4.196320157816157E+06,
2461526.500000000, A.D. 2027-May-01 00:00:00.0000, 4.013263412723687E+08, -1.279649079335483E+08, -4.615959682655640E+06,
2461533.500000000, A.D. 2027-May-08 00:00:00.0000, 4.030727590049880E+08, -1.167882175917775E+08, -5.032601912215166E+06,
2461540.500000000, A.D. 2027-May-15 00:00:00.0000, 4.045545158780276E+08, -1.055348643069179E+08, -5.445939590002373E+06,
2461547.500000000, A.D. 2027-May-22 00:00:00.0000, 4.057676702312067E+08, -9.421146306748885E+07, -5.855661381000690E+06,
2461554.500000000, A.D. 2027-May-29 00:00:00.0000, 4.067084447329662E+08, -8.282484244106312E+07, -6.261452253862642E+06,
2461561.500000000, A.D. 2027-Jun-05 00:00:00.0000, 4.073732397568960E+08, -7.138204266747695E+07, -6.662994010798395E+06,
2461568.500000000, A.D. 2027-Jun-12 00:00:00.0000, 4.077586467787129E+08, -5.989031187967024E+07, -7.059965745689958E+06,
2461575.500000000, A.D. 2027-Jun-19 00:00:00.0000, 4.078614614172138E+08, -4.835710135326178E+07, -7.452044276259938E+06,
2461582.500000000, A.D. 2027-Jun-26 00:00:00.0000, 4.076786963466459E+08, -3.679006001559030E+07, -7.838904596942911E+06,
2461589.500000000, A.D. 2027-Jul-03 00:00:00.0000, 4.072075941546904E+08, -2.519702817812367E+07, -8.220220363391637E+06,
2461596.500000000, A.D. 2027-Jul-10 00:00:00.0000, 4.064456401200539E+08, -1.358603045885011E+07, -8.595664410542667E+06,
2461603.500000000, A.D. 2027-Jul-17 00:00:00.0000, 4.053905748791816E+08, -1.965267912939239E+06, -8.964909309751611E+06,
2461610.500000000, A.D. 2027-Jul-24 00:00:00.0000, 4.040404070678523E+08, 9.656890580715287E+06, -9.327627983282393E+06,
2461617.500000000, A.D. 2027-Jul-31 00:00:00.0000, 4.023934262733742E+08, 2.127191792187727E+07, -9.683494393279621E+06,
2461624.500000000, A.D. 2027-Aug-07 00:00:00.0000, 4.004482160166660E+08, 3.287114053714835E+07, -1.003218419090696E+07,
2461631.500000000, A.D. 2027-Aug-14 00:00:00.0000, 3.982036643852426E+08, 4.444575202057476E+07, -1.037337513298661E+07,
2461638.500000000, A.D. 2027-Aug-21 00:00:00.0000, 3.956589728580585E+08, 5.598682529148241E+07, -1.070674759562494E+07,
2461645.500000000, A.D. 2027-Aug-28 00:00:00.0000, 3.928136666692384E+08, 6.748532445313136E+07, -1.103198539908013E+07,
2461652.500000000, A.D. 2027-Sep-04 00:00:00.0000, 3.896676054440928E+08, 7.893211882956974E+07, -1.134877662847424E+07,
2461659.500000000, A.D. 2027-Sep-11 00:00:00.0000, 3.862209926295103E+08, 9.031799848648645E+07, -1.165681437357309E+07,
2461666.500000000, A.D. 2027-Sep-18 00:00:00.0000, 3.824743837711197E+08, 1.016336905438950E+08, -1.195579744999313E+07,
2461673.500000000, A.D. 2027-Sep-25 00:00:00.0000, 3.784286937870338E+08, 1.128698761522290E+08, -1.224543112598029E+07,
2461680.500000000, A.D. 2027-Oct-02 00:00:00.0000, 3.740852032368267E+08, 1.240172081000070E+08, -1.252542785595571E+07,
2461687.500000000, A.D. 2027-Oct-09 00:00:00.0000, 3.694455635354102E+08, 1.350663289808176E+08, -1.279550801955181E+07,
2461694.500000000, A.D. 2027-Oct-16 00:00:00.0000, 3.645118011069658E+08, 1.460078897891722E+08, -1.305540067246374E+07,
2461701.500000000, A.D. 2027-Oct-23 00:00:00.0000, 3.592863206768843E+08, 1.568325688563197E+08, -1.330484432934738E+07,
2461708.500000000, A.D. 2027-Oct-30 00:00:00.0000, 3.537719080201415E+08, 1.675310916450780E+08, -1.354358775917460E+07,
2461715.500000000, A.D. 2027-Nov-06 00:00:00.0000, 3.479717309509346E+08, 1.780942524355719E+08, -1.377139058968966E+07,
2461722.500000000, A.D. 2027-Nov-13 00:00:00.0000, 3.418893365297322E+08, 1.885129357291674E+08, -1.398802370383775E+07,
2461729.500000000, A.D. 2027-Nov-20 00:00:00.0000, 3.355286473675250E+08, 1.987781350807587E+08, -1.419326986908970E+07,
2461736.500000000, A.D. 2027-Nov-27 00:00:00.0000, 3.288939586277993E+08, 2.088809722113774E+08, -1.438692450208376E+07,
2461743.500000000, A.D. 2027-Dec-04 00:00:00.0000, 3.219899336937241E+08, 2.188127172015002E+08, -1.456879630428094E+07,
2461750.500000000, A.D. 2027-Dec-11 00:00:00.0000, 3.148215979536905E+08, 2.285648086869014E+08, -1.473870779302628E+07,
2461757.500000000, A.D. 2027-Dec-18 00:00:00.0000, 3.073943309953073E+08, 2.381288736030938E+08, -1.489649577731617E+07,
2461764.500000000, A.D. 2027-Dec-25 00:00:00.0000, 2.997138573857927E+08, 2.474967463622506E+08, -1.504201178901877E+07,
2461771.500000000, A.D. 2028-Jan-01 00:00:00.0000, 2.917862361171695E+08, 2.566604873657086E+08, -1.517512246909185E+07,
$$EOE